OBJECT_NAME,OBJECT_ID,EPOCH,MEAN_MOTION,ECCENTRICITY,INCLINATION,RA_OF_ASC_NODE,ARG_OF_PERICENTER,MEAN_ANOMALY,EPHEMERIS_TYPE,CLASSIFICATION_TYPE,NORAD_CAT_ID,ELEMENT_SET_NO,REV_AT_EPOCH,BSTAR,MEAN_MOTION_DOT,MEAN_MOTION_DDOT
YAMAL 401,2014-082A,2026-06-26T02:42:57.812832,1.00270329,.0000876,0.0083,315.9701,157.5653,291.3942,0,U,40345,999,4200,0,-.217E-5,0
ASTRA 2G,2014-089A,2026-06-27T04:05:10.681728,1.00273998,.00048007,0.0498,336.4437,103.0543,285.2640,0,U,40364,999,4206,0,.162E-5,0
FENGYUN 2G,2014-090A,2026-06-26T16:26:53.974752,1.00269056,.00035792,5.6634,72.7057,150.4754,37.9966,0,U,40367,999,4209,0,-.296E-5,0
MUOS-3,2015-002A,2026-06-27T01:49:38.675712,1.00270886,.00525852,4.5392,43.5621,177.8001,65.7846,0,U,40374,999,4168,0,-.121E-5,0
INMARSAT 5-F2,2015-005A,2026-06-27T03:41:27.955392,1.00270569,.00004121,0.0192,11.7419,82.8678,181.0131,0,U,40384,999,4109,0,-.274E-5,0
ABS-3A,2015-010A,2026-06-27T03:56:19.031424,1.00271025,.00017379,0.0429,53.0245,357.9915,280.3609,0,U,40424,999,4147,0,0,0
EUTELSAT 115 WEST B,2015-010B,2026-06-27T05:06:58.339872,1.00269293,.00003659,0.0122,152.7213,80.1634,4.2889,0,U,40425,999,4148,0,-.13E-6,0
EXPRESS-AM7,2015-012A,2026-06-27T04:08:32.858592,1.00269035,.00032351,0.0266,13.6137,88.1933,275.6193,0,U,40505,999,4110,0,0,0
BEIDOU-3S IGSO-1S,2015-019A,2026-06-26T16:41:18.216672,1.00249401,.0039049,49.1760,295.3462,191.6970,128.6573,0,U,40549,999,4116,0,-.17E-5,0
THOR 7,2015-022A,2026-06-27T03:56:56.471136,1.00271803,.00026796,0.0219,103.3076,348.1312,242.4102,0,U,40613,999,4091,0,.3E-7,0
TURKMENALEM52E/MONACOSAT,2015-023A,2026-06-27T04:11:55.036320,1.00269965,.00030515,0.0234,69.7157,16.5233,304.0545,0,U,40617,999,4094,0,.116E-5,0
DIRECTV 15,2015-026A,2026-06-27T06:40:57.711072,1.00270753,.00004737,0.0171,59.1244,26.3791,187.2525,0,U,40663,999,4056,0,-.91E-6,0
SKY MEXICO-1,2015-026B,2026-06-27T04:33:38.624832,1.00272001,.0002591,0.0154,341.9092,130.6397,152.3678,0,U,40664,999,4055,0,-.223E-5,0
METEOSAT-11 (MSG-4),2015-034A,2026-06-27T03:59:48.695712,1.00266192,.00022434,3.2255,71.0480,347.4242,286.1812,0,U,40732,999,731,0,.7E-6,0
STAR ONE C4,2015-034B,2026-06-27T04:25:38.699616,1.00270948,.00021749,0.0246,333.0892,96.9445,201.6836,0,U,40733,999,4011,0,-.253E-5,0
WGS F7 (USA 263),2015-036A,2026-06-27T01:21:32.561568,1.00270567,.00006523,0.0425,55.2950,134.9470,280.2783,0,U,40746,999,3997,0,0,0
INTELSAT 34 (IS-34),2015-039A,2026-06-27T05:23:53.457792,1.00275995,.00007722,0.0108,12.1742,29.5641,259.0762,0,U,40874,999,3973,0,-.274E-5,0
EUTELSAT 8 WEST B,2015-039B,2026-06-27T03:54:49.175424,1.00271675,.00037466,0.0634,7.8649,84.5569,233.5577,0,U,40875,999,3975,0,-.54E-6,0
GSAT-6,2015-041A,2026-06-27T04:20:39.198336,1.00270643,.00031212,1.9443,82.4719,6.3505,334.1638,0,U,40880,999,3969,0,-.15E-5,0
INMARSAT 5-F3,2015-042A,2026-06-27T03:05:37.422240,1.00271900,.00004493,0.0188,21.9777,85.0372,34.2284,0,U,40882,999,3967,0,.62E-6,0
MUOS-4,2015-044A,2026-06-27T04:18:31.901760,1.00272368,.00578044,4.3482,42.3052,2.9903,9.6129,0,U,40887,999,3966,0,-.85E-6,0
TJS-1,2015-046A,2026-06-27T04:41:23.519040,1.00270718,.00059298,0.3490,84.9183,5.5255,50.2408,0,U,40892,999,3967,0,-.145E-5,0
EXPRESS-AM8,2015-048A,2026-06-26T15:54:29.007072,1.00271665,.00004108,0.0168,328.7711,85.7051,84.9254,0,U,40895,999,3944,0,-.1E-5,0
BEIDOU-3S IGSO-2S,2015-053A,2026-06-26T16:25:46.582752,1.00257789,.00655228,49.2053,258.6677,192.9538,164.2588,0,U,40938,999,3944,0,-.116E-5,0
SKY MUSTER 1 (NBN1A),2015-054A,2026-06-26T23:29:06.853056,1.00273843,.00020244,0.0183,342.6778,109.9041,315.0433,0,U,40940,999,3935,0,-.267E-5,0
ARSAT 2,2015-054B,2026-06-27T05:16:39.151776,1.00272339,.00022593,0.0109,336.3371,108.9558,188.2050,0,U,40941,999,3940,0,-.213E-5,0
MORELOS 3,2015-056A,2026-06-27T05:07:28.292160,1.00272427,.00005719,3.1950,15.3275,1.1818,222.5861,0,U,40946,999,3938,0,-.34E-6,0
APSTAR-9,2015-059A,2026-06-27T06:19:31.507968,1.00274629,.00026597,0.0313,308.6360,228.7296,334.8884,0,U,40982,999,3922,0,-.254E-5,0
TURKSAT 4B,2015-060A,2026-06-27T04:11:17.595744,1.00272446,.00024992,0.0129,50.0914,41.6425,296.3204,0,U,40984,999,3919,0,.127E-5,0
ZHONGXING-2C,2015-063A,2026-06-27T02:43:54.396192,1.00274305,.00075953,0.2998,89.3959,95.4517,234.7911,0,U,41021,999,3907,0,-.313E-5,0
GSAT-15,2015-065A,2026-06-27T02:41:09.659904,1.00271005,.00045994,0.0487,263.7322,173.1026,332.2023,0,U,41028,999,3889,0,-.246E-5,0
BADR-7 (ARABSAT-6B),2015-065B,2026-06-27T04:04:33.242016,1.00273317,.00039584,0.0184,251.5574,303.5881,167.2528,0,U,41029,999,3886,0,.156E-5,0
